!AIVDM,1,1,,A,13aEO:0P000h010Q@4=000000000,0*15
$PGEV,INFO,MANILA_TRANSIT_SIMULATION,EPOCH=20260911T000000Z*00
$GPRMC,000000.00,A,1436.2100,N,12059.0100,E,0,107.0,110926,,,A*46
$GPGGA,000000.00,1436.2100,N,12059.0100,E,1,08,1.2,12.0,M,0.0,M,,*69
$GPRMC,000000.00,A,1439.1260,N,12101.9560,E,0,149.0,110926,,,A*42
$GPGGA,000000.00,1439.1260,N,12101.9560,E,1,09,1.1,35.0,M,0.0,M,,*60
$GPRMC,000010.00,A,1436.2100,N,12059.0100,E,0,107.0,110926,,,A*47
$GPGGA,000010.00,1436.2100,N,12059.0100,E,1,08,1.2,12.0,M,0.0,M,,*68
$GPRMC,000010.00,A,1439.1260,N,12101.9560,E,0,149.0,110926,,,A*43
$GPGGA,000010.00,1439.1260,N,12101.9560,E,1,09,1.1,35.0,M,0.0,M,,*61
$GPRMC,000020.00,A,1436.2100,N,12059.0100,E,0,107.0,110926,,,A*44
$GPGGA,000020.00,1436.2100,N,12059.0100,E,1,08,1.2,12.0,M,0.0,M,,*6B
$GPRMC,000020.00,A,1439.1260,N,12101.9560,E,0,149.0,110926,,,A*40
$GPGGA,000020.00,1439.1260,N,12101.9560,E,1,09,1.1,35.0,M,0.0,M,,*62
$GPRMC,000030.00,A,1436.2100,N,12059.0100,E,0,107.0,110926,,,A*45
$GPGGA,000030.00,1436.2100,N,12059.0100,E,1,08,1.2,12.0,M,0.0,M,,*6A
$GPRMC,000030.00,A,1439.1260,N,12101.9560,E,0,149.0,110926,,,A*41
$GPGGA,000030.00,1439.1260,N,12101.9560,E,1,09,1.1,35.0,M,0.0,M,,*63
$GPRMC,000040.00,A,1436.2051,N,12059.0264,E,9.2,107.0,110926,,,A*53
$GPGGA,000040.00,1436.2051,N,12059.0264,E,1,08,1.2,12.0,M,0.0,M,,*69
$GPRMC,000040.00,A,1439.1092,N,12101.9665,E,9.2,149.0,110926,,,A*5A
$GPGGA,000040.00,1439.1092,N,12101.9665,E,1,09,1.1,35.0,M,0.0,M,,*6D
$GPRMC,000050.00,A,1436.1910,N,12059.0738,E,17.3,107.0,110926,,,A*6F
$GPGGA,000050.00,1436.1910,N,12059.0738,E,1,08,1.2,12.0,M,0.0,M,,*6B
$GPRMC,000050.00,A,1439.0607,N,12101.9967,E,17.3,149.0,110926,,,A*63
$GPGGA,000050.00,1439.0607,N,12101.9967,E,1,09,1.1,35.0,M,0.0,M,,*6A
$GPRMC,000100.00,A,1436.1695,N,12059.1465,E,23.2,107.0,110926,,,A*65
$GPGGA,000100.00,1436.1695,N,12059.1465,E,1,08,1.2,13.0,M,0.0,M,,*66
$GPRMC,000100.00,A,1438.9865,N,12102.0430,E,23.2,149.0,110926,,,A*66
$GPGGA,000100.00,1438.9865,N,12102.0430,E,1,09,1.1,36.0,M,0.0,M,,*6A
$GPRMC,000110.00,A,1436.1430,N,12059.2356,E,26.5,107.0,110926,,,A*6F
$GPGGA,000110.00,1436.1430,N,12059.2356,E,1,08,1.2,13.0,M,0.0,M,,*6E
$GPRMC,000110.00,A,1438.8954,N,12102.0998,E,26.5,149.0,110926,,,A*68
$GPGGA,000110.00,1438.8954,N,12102.0998,E,1,09,1.1,36.0,M,0.0,M,,*66
$GPRMC,000120.00,A,1436.1150,N,12059.3304,E,26.5,107.0,110926,,,A*69
$GPGGA,000120.00,1436.1150,N,12059.3304,E,1,08,1.2,13.0,M,0.0,M,,*68
$GPRMC,000120.00,A,1438.7986,N,12102.1602,E,26.5,149.0,110926,,,A*66
$GPGGA,000120.00,1438.7986,N,12102.1602,E,1,09,1.1,37.0,M,0.0,M,,*69
$GPRMC,000130.00,A,1436.0885,N,12059.4195,E,23.2,107.0,110926,,,A*67
$GPGGA,000130.00,1436.0885,N,12059.4195,E,1,08,1.2,14.0,M,0.0,M,,*63
$GPRMC,000130.00,A,1438.7075,N,12102.2170,E,23.2,149.0,110926,,,A*61
$GPGGA,000130.00,1438.7075,N,12102.2170,E,1,09,1.1,37.0,M,0.0,M,,*6C
$GPRMC,000140.00,A,1436.0670,N,12059.4922,E,17.3,107.0,110926,,,A*66
$GPGGA,000140.00,1436.0670,N,12059.4922,E,1,08,1.2,14.0,M,0.0,M,,*64
$GPRMC,000140.00,A,1438.6333,N,12102.2633,E,17.3,149.0,110926,,,A*60
$GPGGA,000140.00,1438.6333,N,12102.2633,E,1,09,1.1,38.0,M,0.0,M,,*64
$GPRMC,000150.00,A,1436.0529,N,12059.5396,E,9.2,107.0,110926,,,A*52
$GPGGA,000150.00,1436.0529,N,12059.5396,E,1,08,1.2,14.0,M,0.0,M,,*6E
$GPRMC,000150.00,A,1438.5848,N,12102.2935,E,9.2,149.0,110926,,,A*52
$GPGGA,000150.00,1438.5848,N,12102.2935,E,1,09,1.1,38.0,M,0.0,M,,*68
$GPRMC,000200.00,A,1436.0480,N,12059.5560,E,0,86.0,110926,,,A*74
$GPGGA,000200.00,1436.0480,N,12059.5560,E,1,08,1.2,14.0,M,0.0,M,,*65
$GPRMC,000200.00,A,1438.5680,N,12102.3040,E,0,150.0,110926,,,A*49
$GPGGA,000200.00,1438.5680,N,12102.3040,E,1,09,1.1,38.0,M,0.0,M,,*6E
$GPRMC,000210.00,A,1436.0480,N,12059.5560,E,0,86.0,110926,,,A*75
$GPGGA,000210.00,1436.0480,N,12059.5560,E,1,08,1.2,14.0,M,0.0,M,,*64
$GPRMC,000210.00,A,1438.5680,N,12102.3040,E,0,150.0,110926,,,A*48
$GPGGA,000210.00,1438.5680,N,12102.3040,E,1,09,1.1,38.0,M,0.0,M,,*6F
$GPRMC,000220.00,A,1436.0480,N,12059.5560,E,0,86.0,110926,,,A*76
$GPGGA,000220.00,1436.0480,N,12059.5560,E,1,08,1.2,14.0,M,0.0,M,,*67
$GPRMC,000220.00,A,1438.5680,N,12102.3040,E,0,150.0,110926,,,A*4B
$GPGGA,000220.00,1438.5680,N,12102.3040,E,1,09,1.1,38.0,M,0.0,M,,*6C
$GPRMC,000230.00,A,1436.0480,N,12059.5560,E,0,86.0,110926,,,A*77
$GPGGA,000230.00,1436.0480,N,12059.5560,E,1,08,1.2,14.0,M,0.0,M,,*66
$GPRMC,000230.00,A,1438.5680,N,12102.3040,E,0,150.0,110926,,,A*4A
$GPGGA,000230.00,1438.5680,N,12102.3040,E,1,09,1.1,38.0,M,0.0,M,,*6D
$GPRMC,000240.00,A,1436.0494,N,12059.5783,E,9.2,86.0,110926,,,A*6F
$GPGGA,000240.00,1436.0494,N,12059.5783,E,1,08,1.2,14.0,M,0.0,M,,*6B
$GPRMC,000240.00,A,1438.5532,N,12102.3127,E,9.2,150.0,110926,,,A*52
$GPGGA,000240.00,1438.5532,N,12102.3127,E,1,09,1.1,38.0,M,0.0,M,,*60
$GPRMC,000250.00,A,1436.0536,N,12059.6423,E,17.3,86.0,110926,,,A*53
$GPGGA,000250.00,1436.0536,N,12059.6423,E,1,08,1.2,14.0,M,0.0,M,,*69
$GPRMC,000250.00,A,1438.5105,N,12102.3377,E,17.3,150.0,110926,,,A*6A
$GPGGA,000250.00,1438.5105,N,12102.3377,E,1,09,1.1,38.0,M,0.0,M,,*66
$GPRMC,000300.00,A,1436.0600,N,12059.7405,E,23.2,86.0,110926,,,A*52
$GPGGA,000300.00,1436.0600,N,12059.7405,E,1,08,1.2,15.0,M,0.0,M,,*6F
$GPRMC,000300.00,A,1438.4450,N,12102.3760,E,23.2,150.0,110926,,,A*6E
$GPGGA,000300.00,1438.4450,N,12102.3760,E,1,09,1.1,39.0,M,0.0,M,,*65
$GPRMC,000310.00,A,1436.0679,N,12059.8609,E,26.5,86.0,110926,,,A*5E
$GPGGA,000310.00,1436.0679,N,12059.8609,E,1,08,1.2,15.0,M,0.0,M,,*61
$GPRMC,000310.00,A,1438.3647,N,12102.4230,E,26.5,150.0,110926,,,A*69
$GPGGA,000310.00,1438.3647,N,12102.4230,E,1,09,1.1,39.0,M,0.0,M,,*60
$GPRMC,000320.00,A,1436.0761,N,12059.9891,E,26.5,86.0,110926,,,A*5B
$GPGGA,000320.00,1436.0761,N,12059.9891,E,1,08,1.2,15.0,M,0.0,M,,*64
$GPRMC,000320.00,A,1438.2793,N,12102.4730,E,26.5,150.0,110926,,,A*66
$GPGGA,000320.00,1438.2793,N,12102.4730,E,1,09,1.1,39.0,M,0.0,M,,*6F
$GPRMC,000330.00,A,1436.0840,N,12100.1095,E,23.2,86.0,110926,,,A*5D
$GPGGA,000330.00,1436.0840,N,12100.1095,E,1,08,1.2,16.0,M,0.0,M,,*63
$GPRMC,000330.00,A,1438.1990,N,12102.5200,E,23.2,150.0,110926,,,A*6C
$GPGGA,000330.00,1438.1990,N,12102.5200,E,1,09,1.1,40.0,M,0.0,M,,*69
$GPRMC,000340.00,A,1436.0904,N,12100.2077,E,17.3,86.0,110926,,,A*52
$GPGGA,000340.00,1436.0904,N,12100.2077,E,1,08,1.2,16.0,M,0.0,M,,*6A
$GPRMC,000340.00,A,1438.1335,N,12102.5583,E,17.3,150.0,110926,,,A*64
$GPGGA,000340.00,1438.1335,N,12102.5583,E,1,09,1.1,40.0,M,0.0,M,,*67
$GPRMC,000350.00,A,1436.0946,N,12100.2717,E,9.2,86.0,110926,,,A*6A
$GPGGA,000350.00,1436.0946,N,12100.2717,E,1,08,1.2,16.0,M,0.0,M,,*6C
$GPRMC,000350.00,A,1438.0908,N,12102.5833,E,9.2,150.0,110926,,,A*58
$GPGGA,000350.00,1438.0908,N,12102.5833,E,1,09,1.1,40.0,M,0.0,M,,*65
$GPRMC,000400.00,A,1436.0960,N,12100.2940,E,0,78.0,110926,,,A*74
$GPGGA,000400.00,1436.0960,N,12100.2940,E,1,08,1.2,16.0,M,0.0,M,,*66
$GPRMC,000400.00,A,1438.0760,N,12102.5920,E,0,149.0,110926,,,A*44
$GPGGA,000400.00,1438.0760,N,12102.5920,E,1,09,1.1,40.0,M,0.0,M,,*64
$GPRMC,000410.00,A,1436.0960,N,12100.2940,E,0,78.0,110926,,,A*75
$GPGGA,000410.00,1436.0960,N,12100.2940,E,1,08,1.2,16.0,M,0.0,M,,*67
$GPRMC,000410.00,A,1438.0760,N,12102.5920,E,0,149.0,110926,,,A*45
$GPGGA,000410.00,1438.0760,N,12102.5920,E,1,09,1.1,40.0,M,0.0,M,,*65
$GPRMC,000420.00,A,1436.0960,N,12100.2940,E,0,78.0,110926,,,A*76
$GPGGA,000420.00,1436.0960,N,12100.2940,E,1,08,1.2,16.0,M,0.0,M,,*64
$GPRMC,000420.00,A,1438.0760,N,12102.5920,E,0,149.0,110926,,,A*46
$GPGGA,000420.00,1438.0760,N,12102.5920,E,1,09,1.1,40.0,M,0.0,M,,*66
$GPRMC,000430.00,A,1436.0960,N,12100.2940,E,0,78.0,110926,,,A*77
$GPGGA,000430.00,1436.0960,N,12100.2940,E,1,08,1.2,16.0,M,0.0,M,,*65
$GPRMC,000430.00,A,1438.0760,N,12102.5920,E,0,149.0,110926,,,A*47
$GPGGA,000430.00,1438.0760,N,12102.5920,E,1,09,1.1,40.0,M,0.0,M,,*67
$GPRMC,000440.00,A,1436.1005,N,12100.3168,E,9.2,78.0,110926,,,A*6D
$GPGGA,000440.00,1436.1005,N,12100.3168,E,1,08,1.2,16.0,M,0.0,M,,*6A
$GPRMC,000440.00,A,1438.0487,N,12102.6090,E,9.2,149.0,110926,,,A*5E
$GPGGA,000440.00,1438.0487,N,12102.6090,E,1,09,1.1,40.0,M,0.0,M,,*6B
$GPRMC,000450.00,A,1436.1135,N,12100.3824,E,17.3,78.0,110926,,,A*51
$GPGGA,000450.00,1436.1135,N,12100.3824,E,1,08,1.2,16.0,M,0.0,M,,*68
$GPRMC,000450.00,A,1437.9700,N,12102.6580,E,17.3,149.0,110926,,,A*6F
$GPGGA,000450.00,1437.9700,N,12102.6580,E,1,09,1.1,40.0,M,0.0,M,,*64
$GPRMC,000500.00,A,1436.1335,N,12100.4830,E,23.2,78.0,110926,,,A*53
$GPGGA,000500.00,1436.1335,N,12100.4830,E,1,08,1.2,17.0,M,0.0,M,,*6D
$GPRMC,000500.00,A,1437.8495,N,12102.7330,E,23.2,149.0,110926,,,A*6F
$GPGGA,000500.00,1437.8495,N,12102.7330,E,1,09,1.1,41.0,M,0.0,M,,*63
$GPRMC,000510.00,A,1436.1580,N,12100.6064,E,26.5,78.0,110926,,,A*53
$GPGGA,000510.00,1436.1580,N,12100.6064,E,1,08,1.2,17.0,M,0.0,M,,*6F
$GPRMC,000510.00,A,1437.7017,N,12102.8250,E,26.5,149.0,110926,,,A*65
$GPGGA,000510.00,1437.7017,N,12102.8250,E,1,09,1.1,41.0,M,0.0,M,,*6B
$GPRMC,000520.00,A,1436.1840,N,12100.7376,E,26.5,78.0,110926,,,A*50
$GPGGA,000520.00,1436.1840,N,12100.7376,E,1,08,1.2,17.0,M,0.0,M,,*6C
$GPRMC,000520.00,A,1437.5443,N,12102.9230,E,26.5,149.0,110926,,,A*66
$GPGGA,000520.00,1437.5443,N,12102.9230,E,1,09,1.1,41.0,M,0.0,M,,*68
$GPRMC,000530.00,A,1436.2085,N,12100.8610,E,23.2,78.0,110926,,,A*5B
$GPGGA,000530.00,1436.2085,N,12100.8610,E,1,08,1.2,18.0,M,0.0,M,,*6A
$GPRMC,000530.00,A,1437.3965,N,12103.0150,E,23.2,149.0,110926,,,A*67
$GPGGA,000530.00,1437.3965,N,12103.0150,E,1,09,1.1,42.0,M,0.0,M,,*68
$GPRMC,000540.00,A,1436.2285,N,12100.9616,E,17.3,78.0,110926,,,A*5F
$GPGGA,000540.00,1436.2285,N,12100.9616,E,1,08,1.2,18.0,M,0.0,M,,*68
$GPRMC,000540.00,A,1437.2760,N,12103.0900,E,17.3,149.0,110926,,,A*61
$GPGGA,000540.00,1437.2760,N,12103.0900,E,1,09,1.1,42.0,M,0.0,M,,*68
$GPRMC,000550.00,A,1436.2415,N,12101.0272,E,9.2,78.0,110926,,,A*61
$GPGGA,000550.00,1436.2415,N,12101.0272,E,1,08,1.2,18.0,M,0.0,M,,*68
$GPRMC,000550.00,A,1437.1973,N,12103.1390,E,9.2,149.0,110926,,,A*53
$GPGGA,000550.00,1437.1973,N,12103.1390,E,1,09,1.1,42.0,M,0.0,M,,*64
$GPRMC,000600.00,A,1436.2460,N,12101.0500,E,0,80.0,110926,,,A*75
$GPGGA,000600.00,1436.2460,N,12101.0500,E,1,08,1.2,18.0,M,0.0,M,,*6E
$GPRMC,000600.00,A,1437.1700,N,12103.1560,E,0,163.0,110926,,,A*4B
$GPGGA,000600.00,1437.1700,N,12103.1560,E,1,09,1.1,42.0,M,0.0,M,,*61
$GPRMC,000610.00,A,1436.2460,N,12101.0500,E,0,80.0,110926,,,A*74
$GPGGA,000610.00,1436.2460,N,12101.0500,E,1,08,1.2,18.0,M,0.0,M,,*6F
$GPRMC,000610.00,A,1437.1700,N,12103.1560,E,0,163.0,110926,,,A*4A
$GPGGA,000610.00,1437.1700,N,12103.1560,E,1,09,1.1,42.0,M,0.0,M,,*60
$GPRMC,000620.00,A,1436.2460,N,12101.0500,E,0,80.0,110926,,,A*77
$GPGGA,000620.00,1436.2460,N,12101.0500,E,1,08,1.2,18.0,M,0.0,M,,*6C
$GPRMC,000620.00,A,1437.1700,N,12103.1560,E,0,163.0,110926,,,A*49
$GPGGA,000620.00,1437.1700,N,12103.1560,E,1,09,1.1,42.0,M,0.0,M,,*63
$GPRMC,000630.00,A,1436.2460,N,12101.0500,E,0,80.0,110926,,,A*76
$GPGGA,000630.00,1436.2460,N,12101.0500,E,1,08,1.2,18.0,M,0.0,M,,*6D
$GPRMC,000630.00,A,1437.1700,N,12103.1560,E,0,163.0,110926,,,A*48
$GPGGA,000630.00,1437.1700,N,12103.1560,E,1,09,1.1,42.0,M,0.0,M,,*62
$GPRMC,000640.00,A,1436.2487,N,12101.0659,E,9.2,80.0,110926,,,A*62
$GPGGA,000640.00,1436.2487,N,12101.0659,E,1,08,1.2,18.0,M,0.0,M,,*6C
$GPRMC,000640.00,A,1437.1488,N,12103.1625,E,9.2,163.0,110926,,,A*5B
$GPGGA,000640.00,1437.1488,N,12103.1625,E,1,09,1.1,42.0,M,0.0,M,,*64
$GPRMC,000650.00,A,1436.2565,N,12101.1117,E,17.3,80.0,110926,,,A*5C
$GPGGA,000650.00,1436.2565,N,12101.1117,E,1,08,1.2,19.0,M,0.0,M,,*6D
$GPRMC,000650.00,A,1437.0879,N,12103.1813,E,17.3,163.0,110926,,,A*6C
$GPGGA,000650.00,1437.0879,N,12103.1813,E,1,09,1.1,42.0,M,0.0,M,,*6D
$GPRMC,000700.00,A,1436.2685,N,12101.1820,E,23.2,80.0,110926,,,A*5E
$GPGGA,000700.00,1436.2685,N,12101.1820,E,1,08,1.2,20.0,M,0.0,M,,*63
$GPRMC,000700.00,A,1436.9945,N,12103.2100,E,23.2,163.0,110926,,,A*60
$GPGGA,000700.00,1436.9945,N,12103.2100,E,1,09,1.1,43.0,M,0.0,M,,*66
$GPRMC,000710.00,A,1436.2832,N,12101.2682,E,26.5,80.0,110926,,,A*5A
$GPGGA,000710.00,1436.2832,N,12101.2682,E,1,08,1.2,21.0,M,0.0,M,,*64
$GPRMC,000710.00,A,1436.8800,N,12103.2452,E,26.5,163.0,110926,,,A*60
$GPGGA,000710.00,1436.8800,N,12103.2452,E,1,09,1.1,43.0,M,0.0,M,,*64
$GPRMC,000720.00,A,1436.2988,N,12101.3598,E,26.5,80.0,110926,,,A*50
$GPGGA,000720.00,1436.2988,N,12101.3598,E,1,08,1.2,22.0,M,0.0,M,,*6D
$GPRMC,000720.00,A,1436.7580,N,12103.2828,E,26.5,163.0,110926,,,A*68
$GPGGA,000720.00,1436.7580,N,12103.2828,E,1,09,1.1,43.0,M,0.0,M,,*6C
$GPRMC,000730.00,A,1436.3135,N,12101.4460,E,23.2,80.0,110926,,,A*5D
$GPGGA,000730.00,1436.3135,N,12101.4460,E,1,08,1.2,23.0,M,0.0,M,,*63
$GPRMC,000730.00,A,1436.6435,N,12103.3180,E,23.2,163.0,110926,,,A*6F
$GPGGA,000730.00,1436.6435,N,12103.3180,E,1,09,1.1,44.0,M,0.0,M,,*6E
$GPRMC,000740.00,A,1436.3255,N,12101.5163,E,17.3,80.0,110926,,,A*5E
$GPGGA,000740.00,1436.3255,N,12101.5163,E,1,08,1.2,24.0,M,0.0,M,,*61
$GPRMC,000740.00,A,1436.5501,N,12103.3467,E,17.3,163.0,110926,,,A*67
$GPGGA,000740.00,1436.5501,N,12103.3467,E,1,09,1.1,44.0,M,0.0,M,,*60
$GPRMC,000750.00,A,1436.3333,N,12101.5621,E,9.2,80.0,110926,,,A*61
$GPGGA,000750.00,1436.3333,N,12101.5621,E,1,08,1.2,25.0,M,0.0,M,,*61
$GPRMC,000750.00,A,1436.4892,N,12103.3655,E,9.2,163.0,110926,,,A*5D
$GPGGA,000750.00,1436.4892,N,12103.3655,E,1,09,1.1,44.0,M,0.0,M,,*64
$GPRMC,000800.00,A,1436.3360,N,12101.5780,E,0,45.0,110926,,,A*7B
$GPGGA,000800.00,1436.3360,N,12101.5780,E,1,08,1.2,25.0,M,0.0,M,,*67
$GPRMC,000800.00,A,1436.4680,N,12103.3720,E,0,174.0,110926,,,A*4A
$GPGGA,000800.00,1436.4680,N,12103.3720,E,1,09,1.1,44.0,M,0.0,M,,*60
$GPRMC,000810.00,A,1436.3360,N,12101.5780,E,0,45.0,110926,,,A*7A
$GPGGA,000810.00,1436.3360,N,12101.5780,E,1,08,1.2,25.0,M,0.0,M,,*66
$GPRMC,000810.00,A,1436.4680,N,12103.3720,E,0,174.0,110926,,,A*4B
$GPGGA,000810.00,1436.4680,N,12103.3720,E,1,09,1.1,44.0,M,0.0,M,,*61
$GPRMC,000820.00,A,1436.3360,N,12101.5780,E,0,45.0,110926,,,A*79
$GPGGA,000820.00,1436.3360,N,12101.5780,E,1,08,1.2,25.0,M,0.0,M,,*65
$GPRMC,000820.00,A,1436.4680,N,12103.3720,E,0,174.0,110926,,,A*48
$GPGGA,000820.00,1436.4680,N,12103.3720,E,1,09,1.1,44.0,M,0.0,M,,*62
$GPRMC,000830.00,A,1436.3360,N,12101.5780,E,0,45.0,110926,,,A*78
$GPGGA,000830.00,1436.3360,N,12101.5780,E,1,08,1.2,25.0,M,0.0,M,,*64
$GPRMC,000830.00,A,1436.4680,N,12103.3720,E,0,174.0,110926,,,A*49
$GPGGA,000830.00,1436.4680,N,12103.3720,E,1,09,1.1,44.0,M,0.0,M,,*63
$GPRMC,000840.00,A,1436.3503,N,12101.5928,E,9.2,45.0,110926,,,A*65
$GPGGA,000840.00,1436.3503,N,12101.5928,E,1,08,1.2,25.0,M,0.0,M,,*6C
$GPRMC,000840.00,A,1436.4318,N,12103.3758,E,9.2,174.0,110926,,,A*50
$GPGGA,000840.00,1436.4318,N,12103.3758,E,1,09,1.1,44.0,M,0.0,M,,*6F
$GPRMC,000850.00,A,1436.3914,N,12101.6355,E,17.3,45.0,110926,,,A*53
$GPGGA,000850.00,1436.3914,N,12101.6355,E,1,08,1.2,26.0,M,0.0,M,,*67
$GPRMC,000850.00,A,1436.3276,N,12103.3868,E,17.3,174.0,110926,,,A*6D
$GPGGA,000850.00,1436.3276,N,12103.3868,E,1,09,1.1,43.0,M,0.0,M,,*6B
$GPRMC,000900.00,A,1436.4545,N,12101.7010,E,23.2,45.0,110926,,,A*5D
$GPGGA,000900.00,1436.4545,N,12101.7010,E,1,08,1.2,27.0,M,0.0,M,,*6E
$GPRMC,000900.00,A,1436.1680,N,12103.4035,E,23.2,174.0,110926,,,A*67
$GPGGA,000900.00,1436.1680,N,12103.4035,E,1,09,1.1,42.0,M,0.0,M,,*66
$GPRMC,000910.00,A,1436.5318,N,12101.7813,E,26.5,45.0,110926,,,A*5A
$GPGGA,000910.00,1436.5318,N,12101.7813,E,1,08,1.2,28.0,M,0.0,M,,*64
$GPRMC,000910.00,A,1435.9722,N,12103.4241,E,26.5,174.0,110926,,,A*67
$GPGGA,000910.00,1435.9722,N,12103.4241,E,1,09,1.1,41.0,M,0.0,M,,*67
$GPRMC,000920.00,A,1436.6142,N,12101.8667,E,26.5,45.0,110926,,,A*55
$GPGGA,000920.00,1436.6142,N,12101.8667,E,1,08,1.2,29.0,M,0.0,M,,*6A
$GPRMC,000920.00,A,1435.7638,N,12103.4459,E,26.5,174.0,110926,,,A*6F
$GPGGA,000920.00,1435.7638,N,12103.4459,E,1,09,1.1,39.0,M,0.0,M,,*60
$GPRMC,000930.00,A,1436.6915,N,12101.9470,E,23.2,45.0,110926,,,A*59
$GPGGA,000930.00,1436.6915,N,12101.9470,E,1,08,1.2,30.0,M,0.0,M,,*6C
$GPRMC,000930.00,A,1435.5680,N,12103.4665,E,23.2,174.0,110926,,,A*60
$GPGGA,000930.00,1435.5680,N,12103.4665,E,1,09,1.1,38.0,M,0.0,M,,*6C
$GPRMC,000940.00,A,1436.7546,N,12102.0125,E,17.3,45.0,110926,,,A*5C
$GPGGA,000940.00,1436.7546,N,12102.0125,E,1,08,1.2,31.0,M,0.0,M,,*6E
$GPRMC,000940.00,A,1435.4084,N,12103.4832,E,17.3,174.0,110926,,,A*6E
$GPGGA,000940.00,1435.4084,N,12103.4832,E,1,09,1.1,37.0,M,0.0,M,,*6B
$GPRMC,000950.00,A,1436.7957,N,12102.0552,E,9.2,45.0,110926,,,A*6B
$GPGGA,000950.00,1436.7957,N,12102.0552,E,1,08,1.2,32.0,M,0.0,M,,*64
$GPRMC,000950.00,A,1435.3042,N,12103.4942,E,9.2,174.0,110926,,,A*5A
$GPGGA,000950.00,1435.3042,N,12103.4942,E,1,09,1.1,36.0,M,0.0,M,,*60
$GPRMC,001000.00,A,1436.8100,N,12102.0700,E,0,58.0,110926,,,A*7F
$GPGGA,001000.00,1436.8100,N,12102.0700,E,1,08,1.2,32.0,M,0.0,M,,*69
$GPRMC,001000.00,A,1435.2680,N,12103.4980,E,0,215.0,110926,,,A*41
$GPGGA,001000.00,1435.2680,N,12103.4980,E,1,09,1.1,36.0,M,0.0,M,,*6A
$GPRMC,001010.00,A,1436.8100,N,12102.0700,E,0,58.0,110926,,,A*7E
$GPGGA,001010.00,1436.8100,N,12102.0700,E,1,08,1.2,32.0,M,0.0,M,,*68
$GPRMC,001010.00,A,1435.2680,N,12103.4980,E,0,215.0,110926,,,A*40
$GPGGA,001010.00,1435.2680,N,12103.4980,E,1,09,1.1,36.0,M,0.0,M,,*6B
$GPRMC,001020.00,A,1436.8100,N,12102.0700,E,0,58.0,110926,,,A*7D
$GPGGA,001020.00,1436.8100,N,12102.0700,E,1,08,1.2,32.0,M,0.0,M,,*6B
$GPRMC,001020.00,A,1435.2680,N,12103.4980,E,0,215.0,110926,,,A*43
$GPGGA,001020.00,1435.2680,N,12103.4980,E,1,09,1.1,36.0,M,0.0,M,,*68
$GPRMC,001030.00,A,1436.8100,N,12102.0700,E,0,58.0,110926,,,A*7C
$GPGGA,001030.00,1436.8100,N,12102.0700,E,1,08,1.2,32.0,M,0.0,M,,*6A
$GPRMC,001030.00,A,1435.2680,N,12103.4980,E,0,215.0,110926,,,A*42
$GPGGA,001030.00,1435.2680,N,12103.4980,E,1,09,1.1,36.0,M,0.0,M,,*69
$GPRMC,001040.00,A,1436.8191,N,12102.0848,E,9.2,58.0,110926,,,A*65
$GPGGA,001040.00,1436.8191,N,12102.0848,E,1,08,1.2,32.0,M,0.0,M,,*66
$GPRMC,001040.00,A,1435.2562,N,12103.4895,E,9.2,215.0,110926,,,A*5A
$GPGGA,001040.00,1435.2562,N,12103.4895,E,1,09,1.1,36.0,M,0.0,M,,*64
$GPRMC,001050.00,A,1436.8451,N,12102.1275,E,17.3,58.0,110926,,,A*56
$GPGGA,001050.00,1436.8451,N,12102.1275,E,1,08,1.2,33.0,M,0.0,M,,*6A
$GPRMC,001050.00,A,1435.2224,N,12103.4650,E,17.3,215.0,110926,,,A*67
$GPGGA,001050.00,1435.2224,N,12103.4650,E,1,09,1.1,35.0,M,0.0,M,,*64
$GPRMC,001100.00,A,1436.8850,N,12102.1930,E,23.2,58.0,110926,,,A*53
$GPGGA,001100.00,1436.8850,N,12102.1930,E,1,08,1.2,34.0,M,0.0,M,,*6E
$GPRMC,001100.00,A,1435.1705,N,12103.4275,E,23.2,215.0,110926,,,A*63
$GPGGA,001100.00,1435.1705,N,12103.4275,E,1,09,1.1,35.0,M,0.0,M,,*66
$GPRMC,001110.00,A,1436.9340,N,12102.2733,E,26.5,58.0,110926,,,A*55
$GPGGA,001110.00,1436.9340,N,12102.2733,E,1,08,1.2,34.0,M,0.0,M,,*6A
$GPRMC,001110.00,A,1435.1068,N,12103.3815,E,26.5,215.0,110926,,,A*67
$GPGGA,001110.00,1435.1068,N,12103.3815,E,1,09,1.1,34.0,M,0.0,M,,*61
$GPRMC,001120.00,A,1436.9860,N,12102.3587,E,26.5,58.0,110926,,,A*53
$GPGGA,001120.00,1436.9860,N,12102.3587,E,1,08,1.2,36.0,M,0.0,M,,*6E
$GPRMC,001120.00,A,1435.0392,N,12103.3325,E,26.5,215.0,110926,,,A*6B
$GPGGA,001120.00,1435.0392,N,12103.3325,E,1,09,1.1,32.0,M,0.0,M,,*6B
$GPRMC,001130.00,A,1437.0350,N,12102.4390,E,23.2,58.0,110926,,,A*57
$GPGGA,001130.00,1437.0350,N,12102.4390,E,1,08,1.2,37.0,M,0.0,M,,*69
$GPRMC,001130.00,A,1434.9755,N,12103.2865,E,23.2,215.0,110926,,,A*61
$GPGGA,001130.00,1434.9755,N,12103.2865,E,1,09,1.1,32.0,M,0.0,M,,*63
$GPRMC,001140.00,A,1437.0749,N,12102.5045,E,17.3,58.0,110926,,,A*50
$GPGGA,001140.00,1437.0749,N,12102.5045,E,1,08,1.2,37.0,M,0.0,M,,*68
$GPRMC,001140.00,A,1434.9236,N,12103.2490,E,17.3,215.0,110926,,,A*66
$GPGGA,001140.00,1434.9236,N,12103.2490,E,1,09,1.1,31.0,M,0.0,M,,*61
$GPRMC,001150.00,A,1437.1009,N,12102.5472,E,9.2,58.0,110926,,,A*6D
$GPGGA,001150.00,1437.1009,N,12102.5472,E,1,08,1.2,38.0,M,0.0,M,,*64
$GPRMC,001150.00,A,1434.8898,N,12103.2245,E,9.2,215.0,110926,,,A*58
$GPGGA,001150.00,1434.8898,N,12103.2245,E,1,09,1.1,30.0,M,0.0,M,,*60
$GPRMC,001200.00,A,1437.1100,N,12102.5620,E,0,67.0,110926,,,A*7F
$GPGGA,001200.00,1437.1100,N,12102.5620,E,1,08,1.2,38.0,M,0.0,M,,*6F
$GPRMC,001200.00,A,1434.8780,N,12103.2160,E,0,222.0,110926,,,A*4D
$GPGGA,001200.00,1434.8780,N,12103.2160,E,1,09,1.1,30.0,M,0.0,M,,*64
$GPRMC,001210.00,A,1437.1100,N,12102.5620,E,0,67.0,110926,,,A*7E
$GPGGA,001210.00,1437.1100,N,12102.5620,E,1,08,1.2,38.0,M,0.0,M,,*6E
$GPRMC,001210.00,A,1434.8780,N,12103.2160,E,0,222.0,110926,,,A*4C
$GPGGA,001210.00,1434.8780,N,12103.2160,E,1,09,1.1,30.0,M,0.0,M,,*65
$GPRMC,001220.00,A,1437.1100,N,12102.5620,E,0,67.0,110926,,,A*7D
$GPGGA,001220.00,1437.1100,N,12102.5620,E,1,08,1.2,38.0,M,0.0,M,,*6D
$GPRMC,001220.00,A,1434.8780,N,12103.2160,E,0,222.0,110926,,,A*4F
$GPGGA,001220.00,1434.8780,N,12103.2160,E,1,09,1.1,30.0,M,0.0,M,,*66
$GPRMC,001230.00,A,1437.1100,N,12102.5620,E,0,67.0,110926,,,A*7C
$GPGGA,001230.00,1437.1100,N,12102.5620,E,1,08,1.2,38.0,M,0.0,M,,*6C
$GPRMC,001230.00,A,1434.8780,N,12103.2160,E,0,222.0,110926,,,A*4E
$GPGGA,001230.00,1434.8780,N,12103.2160,E,1,09,1.1,30.0,M,0.0,M,,*67
$GPRMC,001240.00,A,1437.1173,N,12102.5799,E,9.2,67.0,110926,,,A*69
$GPGGA,001240.00,1437.1173,N,12102.5799,E,1,08,1.2,38.0,M,0.0,M,,*6C
$GPRMC,001240.00,A,1434.8646,N,12103.2037,E,9.2,222.0,110926,,,A*54
$GPGGA,001240.00,1434.8646,N,12103.2037,E,1,09,1.1,30.0,M,0.0,M,,*68
$GPRMC,001250.00,A,1437.1381,N,12102.6315,E,17.3,67.0,110926,,,A*5A
$GPGGA,001250.00,1437.1381,N,12102.6315,E,1,08,1.2,38.0,M,0.0,M,,*61
$GPRMC,001250.00,A,1434.8260,N,12103.1683,E,17.3,222.0,110926,,,A*61
$GPGGA,001250.00,1434.8260,N,12103.1683,E,1,09,1.1,29.0,M,0.0,M,,*6B
$GPRMC,001300.00,A,1437.1700,N,12102.7105,E,23.2,67.0,110926,,,A*57
$GPGGA,001300.00,1437.1700,N,12102.7105,E,1,08,1.2,39.0,M,0.0,M,,*6B
$GPRMC,001300.00,A,1434.7670,N,12103.1140,E,23.2,222.0,110926,,,A*61
$GPGGA,001300.00,1434.7670,N,12103.1140,E,1,09,1.1,29.0,M,0.0,M,,*6D
$GPRMC,001310.00,A,1437.2092,N,12102.8074,E,26.5,67.0,110926,,,A*53
$GPGGA,001310.00,1437.2092,N,12102.8074,E,1,08,1.2,40.0,M,0.0,M,,*63
$GPRMC,001310.00,A,1434.6945,N,12103.0474,E,26.5,222.0,110926,,,A*69
$GPGGA,001310.00,1434.6945,N,12103.0474,E,1,09,1.1,28.0,M,0.0,M,,*66
$GPRMC,001320.00,A,1437.2508,N,12102.9106,E,26.5,67.0,110926,,,A*53
$GPGGA,001320.00,1437.2508,N,12102.9106,E,1,08,1.2,40.0,M,0.0,M,,*63
$GPRMC,001320.00,A,1434.6175,N,12102.9766,E,26.5,222.0,110926,,,A*69
$GPGGA,001320.00,1434.6175,N,12102.9766,E,1,09,1.1,26.0,M,0.0,M,,*68
$GPRMC,001330.00,A,1437.2900,N,12103.0075,E,23.2,67.0,110926,,,A*59
$GPGGA,001330.00,1437.2900,N,12103.0075,E,1,08,1.2,41.0,M,0.0,M,,*6A
$GPRMC,001330.00,A,1434.5450,N,12102.9100,E,23.2,222.0,110926,,,A*6D
$GPGGA,001330.00,1434.5450,N,12102.9100,E,1,09,1.1,26.0,M,0.0,M,,*6E
$GPRMC,001340.00,A,1437.3219,N,12103.0865,E,17.3,67.0,110926,,,A*53
$GPGGA,001340.00,1437.3219,N,12103.0865,E,1,08,1.2,42.0,M,0.0,M,,*65
$GPRMC,001340.00,A,1434.4860,N,12102.8557,E,17.3,222.0,110926,,,A*65
$GPGGA,001340.00,1434.4860,N,12102.8557,E,1,09,1.1,25.0,M,0.0,M,,*63
$GPRMC,001350.00,A,1437.3427,N,12103.1381,E,9.2,67.0,110926,,,A*67
$GPGGA,001350.00,1437.3427,N,12103.1381,E,1,08,1.2,42.0,M,0.0,M,,*6F
$GPRMC,001350.00,A,1434.4474,N,12102.8203,E,9.2,222.0,110926,,,A*55
$GPGGA,001350.00,1434.4474,N,12102.8203,E,1,09,1.1,24.0,M,0.0,M,,*6C
$GPRMC,001400.00,A,1437.3500,N,12103.1560,E,0,64.0,110926,,,A*7E
$GPGGA,001400.00,1437.3500,N,12103.1560,E,1,08,1.2,42.0,M,0.0,M,,*60
$GPRMC,001400.00,A,1434.4340,N,12102.8080,E,0,221.0,110926,,,A*48
$GPGGA,001400.00,1434.4340,N,12102.8080,E,1,09,1.1,24.0,M,0.0,M,,*67
$GPRMC,001410.00,A,1437.3500,N,12103.1560,E,0,64.0,110926,,,A*7F
$GPGGA,001410.00,1437.3500,N,12103.1560,E,1,08,1.2,42.0,M,0.0,M,,*61
$GPRMC,001410.00,A,1434.4340,N,12102.8080,E,0,221.0,110926,,,A*49
$GPGGA,001410.00,1434.4340,N,12102.8080,E,1,09,1.1,24.0,M,0.0,M,,*66
$GPRMC,001420.00,A,1437.3500,N,12103.1560,E,0,64.0,110926,,,A*7C
$GPGGA,001420.00,1437.3500,N,12103.1560,E,1,08,1.2,42.0,M,0.0,M,,*62
$GPRMC,001420.00,A,1434.4340,N,12102.8080,E,0,221.0,110926,,,A*4A
$GPGGA,001420.00,1434.4340,N,12102.8080,E,1,09,1.1,24.0,M,0.0,M,,*65
$GPRMC,001430.00,A,1437.3500,N,12103.1560,E,0,64.0,110926,,,A*7D
$GPGGA,001430.00,1437.3500,N,12103.1560,E,1,08,1.2,42.0,M,0.0,M,,*63
$GPRMC,001430.00,A,1434.4340,N,12102.8080,E,0,221.0,110926,,,A*4B
$GPGGA,001430.00,1434.4340,N,12102.8080,E,1,09,1.1,24.0,M,0.0,M,,*64
$GPRMC,001440.00,A,1437.3601,N,12103.1775,E,9.2,64.0,110926,,,A*6B
$GPGGA,001440.00,1437.3601,N,12103.1775,E,1,08,1.2,42.0,M,0.0,M,,*60
$GPRMC,001440.00,A,1434.4219,N,12102.7970,E,9.2,221.0,110926,,,A*5D
$GPGGA,001440.00,1434.4219,N,12102.7970,E,1,09,1.1,24.0,M,0.0,M,,*67
$GPRMC,001450.00,A,1437.3893,N,12103.2395,E,17.3,64.0,110926,,,A*58
$GPGGA,001450.00,1437.3893,N,12103.2395,E,1,08,1.2,43.0,M,0.0,M,,*6C
$GPRMC,001450.00,A,1434.3870,N,12102.7652,E,17.3,221.0,110926,,,A*6F
$GPGGA,001450.00,1434.3870,N,12102.7652,E,1,09,1.1,23.0,M,0.0,M,,*6C
$GPRMC,001500.00,A,1437.4340,N,12103.3345,E,23.2,64.0,110926,,,A*54
$GPGGA,001500.00,1437.4340,N,12103.3345,E,1,08,1.2,44.0,M,0.0,M,,*61
$GPRMC,001500.00,A,1434.3335,N,12102.7165,E,23.2,221.0,110926,,,A*64
$GPGGA,001500.00,1434.3335,N,12102.7165,E,1,09,1.1,22.0,M,0.0,M,,*60
$GPRMC,001510.00,A,1437.4888,N,12103.4510,E,26.5,64.0,110926,,,A*59
$GPGGA,001510.00,1437.4888,N,12103.4510,E,1,08,1.2,44.0,M,0.0,M,,*6E
$GPRMC,001510.00,A,1434.2679,N,12102.6568,E,26.5,221.0,110926,,,A*63
$GPGGA,001510.00,1434.2679,N,12102.6568,E,1,09,1.1,21.0,M,0.0,M,,*66
$GPRMC,001520.00,A,1437.5472,N,12103.5750,E,26.5,64.0,110926,,,A*55
$GPGGA,001520.00,1437.5472,N,12103.5750,E,1,08,1.2,46.0,M,0.0,M,,*60
$GPRMC,001520.00,A,1434.1981,N,12102.5932,E,26.5,221.0,110926,,,A*6B
$GPGGA,001520.00,1434.1981,N,12102.5932,E,1,09,1.1,19.0,M,0.0,M,,*65
$GPRMC,001530.00,A,1437.6020,N,12103.6915,E,23.2,64.0,110926,,,A*5A
$GPGGA,001530.00,1437.6020,N,12103.6915,E,1,08,1.2,47.0,M,0.0,M,,*6C
$GPRMC,001530.00,A,1434.1325,N,12102.5335,E,23.2,221.0,110926,,,A*61
$GPGGA,001530.00,1434.1325,N,12102.5335,E,1,09,1.1,18.0,M,0.0,M,,*6C
$GPRMC,001540.00,A,1437.6467,N,12103.7865,E,17.3,64.0,110926,,,A*5B
$GPGGA,001540.00,1437.6467,N,12103.7865,E,1,08,1.2,47.0,M,0.0,M,,*6B
$GPRMC,001540.00,A,1434.0790,N,12102.4848,E,17.3,221.0,110926,,,A*6B
$GPGGA,001540.00,1434.0790,N,12102.4848,E,1,09,1.1,17.0,M,0.0,M,,*6F
$GPRMC,001550.00,A,1437.6759,N,12103.8485,E,9.2,64.0,110926,,,A*67
$GPGGA,001550.00,1437.6759,N,12103.8485,E,1,08,1.2,48.0,M,0.0,M,,*66
$GPRMC,001550.00,A,1434.0441,N,12102.4530,E,9.2,221.0,110926,,,A*59
$GPGGA,001550.00,1434.0441,N,12102.4530,E,1,09,1.1,16.0,M,0.0,M,,*62
$GPRMC,001600.00,A,1437.6860,N,12103.8700,E,0,69.0,110926,,,A*72
$GPGGA,001600.00,1437.6860,N,12103.8700,E,1,08,1.2,48.0,M,0.0,M,,*6B
$GPRMC,001600.00,A,1434.0320,N,12102.4420,E,0,208.0,110926,,,A*41
$GPGGA,001600.00,1434.0320,N,12102.4420,E,1,09,1.1,16.0,M,0.0,M,,*64
$GPRMC,001610.00,A,1437.6860,N,12103.8700,E,0,69.0,110926,,,A*73
$GPGGA,001610.00,1437.6860,N,12103.8700,E,1,08,1.2,48.0,M,0.0,M,,*6A
$GPRMC,001610.00,A,1434.0320,N,12102.4420,E,0,208.0,110926,,,A*40
$GPGGA,001610.00,1434.0320,N,12102.4420,E,1,09,1.1,16.0,M,0.0,M,,*65
$GPRMC,001620.00,A,1437.6860,N,12103.8700,E,0,69.0,110926,,,A*70
$GPGGA,001620.00,1437.6860,N,12103.8700,E,1,08,1.2,48.0,M,0.0,M,,*69
$GPRMC,001620.00,A,1434.0320,N,12102.4420,E,0,208.0,110926,,,A*43
$GPGGA,001620.00,1434.0320,N,12102.4420,E,1,09,1.1,16.0,M,0.0,M,,*66
$GPRMC,001630.00,A,1437.6860,N,12103.8700,E,0,69.0,110926,,,A*71
$GPGGA,001630.00,1437.6860,N,12103.8700,E,1,08,1.2,48.0,M,0.0,M,,*68
$GPRMC,001630.00,A,1434.0320,N,12102.4420,E,0,208.0,110926,,,A*42
$GPGGA,001630.00,1434.0320,N,12102.4420,E,1,09,1.1,16.0,M,0.0,M,,*67
$GPRMC,001640.00,A,1437.6912,N,12103.8845,E,9.2,69.0,110926,,,A*69
$GPGGA,001640.00,1437.6912,N,12103.8845,E,1,08,1.2,48.0,M,0.0,M,,*65
$GPRMC,001640.00,A,1434.0087,N,12102.4293,E,9.2,208.0,110926,,,A*50
$GPGGA,001640.00,1434.0087,N,12102.4293,E,1,09,1.1,16.0,M,0.0,M,,*60
$GPRMC,001650.00,A,1437.7063,N,12103.9262,E,17.3,69.0,110926,,,A*56
$GPGGA,001650.00,1437.7063,N,12103.9262,E,1,08,1.2,49.0,M,0.0,M,,*65
$GPRMC,001650.00,A,1433.9415,N,12102.3929,E,17.3,208.0,110926,,,A*63
$GPGGA,001650.00,1433.9415,N,12102.3929,E,1,09,1.1,17.0,M,0.0,M,,*6C
$GPRMC,001700.00,A,1437.7295,N,12103.9900,E,23.2,69.0,110926,,,A*50
$GPGGA,001700.00,1437.7295,N,12103.9900,E,1,08,1.2,50.0,M,0.0,M,,*6D
$GPRMC,001700.00,A,1433.8385,N,12102.3370,E,23.2,208.0,110926,,,A*68
$GPGGA,001700.00,1433.8385,N,12102.3370,E,1,09,1.1,18.0,M,0.0,M,,*6E
$GPRMC,001710.00,A,1437.7579,N,12104.0683,E,26.5,69.0,110926,,,A*5C
$GPGGA,001710.00,1437.7579,N,12104.0683,E,1,08,1.2,50.0,M,0.0,M,,*63
$GPRMC,001710.00,A,1433.7122,N,12102.2685,E,26.5,208.0,110926,,,A*65
$GPGGA,001710.00,1433.7122,N,12102.2685,E,1,09,1.1,18.0,M,0.0,M,,*61
$GPRMC,001720.00,A,1437.7881,N,12104.1517,E,26.5,69.0,110926,,,A*5A
$GPGGA,001720.00,1437.7881,N,12104.1517,E,1,08,1.2,52.0,M,0.0,M,,*67
$GPRMC,001720.00,A,1433.5778,N,12102.1955,E,26.5,208.0,110926,,,A*6C
$GPGGA,001720.00,1433.5778,N,12102.1955,E,1,09,1.1,20.0,M,0.0,M,,*63
$GPRMC,001730.00,A,1437.8165,N,12104.2300,E,23.2,69.0,110926,,,A*56
$GPGGA,001730.00,1437.8165,N,12104.2300,E,1,08,1.2,53.0,M,0.0,M,,*68
$GPRMC,001730.00,A,1433.4515,N,12102.1270,E,23.2,208.0,110926,,,A*6B
$GPGGA,001730.00,1433.4515,N,12102.1270,E,1,09,1.1,21.0,M,0.0,M,,*67
$GPRMC,001740.00,A,1437.8397,N,12104.2938,E,17.3,69.0,110926,,,A*59
$GPGGA,001740.00,1437.8397,N,12104.2938,E,1,08,1.2,53.0,M,0.0,M,,*61
$GPRMC,001740.00,A,1433.3485,N,12102.0711,E,17.3,208.0,110926,,,A*66
$GPGGA,001740.00,1433.3485,N,12102.0711,E,1,09,1.1,21.0,M,0.0,M,,*6C
$GPRMC,001750.00,A,1437.8548,N,12104.3355,E,9.2,69.0,110926,,,A*62
$GPGGA,001750.00,1437.8548,N,12104.3355,E,1,08,1.2,54.0,M,0.0,M,,*63
$GPRMC,001750.00,A,1433.2813,N,12102.0347,E,9.2,208.0,110926,,,A*5C
$GPGGA,001750.00,1433.2813,N,12102.0347,E,1,09,1.1,22.0,M,0.0,M,,*6B
$GPRMC,001800.00,A,1437.8600,N,12104.3500,E,0,125.0,110926,,,A*4D
$GPGGA,001800.00,1437.8600,N,12104.3500,E,1,08,1.2,54.0,M,0.0,M,,*60
$GPRMC,001800.00,A,1433.2580,N,12102.0220,E,0,227.0,110926,,,A*49
$GPGGA,001800.00,1433.2580,N,12102.0220,E,1,09,1.1,22.0,M,0.0,M,,*66
$GPRMC,001810.00,A,1437.8600,N,12104.3500,E,0,125.0,110926,,,A*4C
$GPGGA,001810.00,1437.8600,N,12104.3500,E,1,08,1.2,54.0,M,0.0,M,,*61
$GPRMC,001810.00,A,1433.2580,N,12102.0220,E,0,227.0,110926,,,A*48
$GPGGA,001810.00,1433.2580,N,12102.0220,E,1,09,1.1,22.0,M,0.0,M,,*67
$GPRMC,001820.00,A,1437.8600,N,12104.3500,E,0,125.0,110926,,,A*4F
$GPGGA,001820.00,1437.8600,N,12104.3500,E,1,08,1.2,54.0,M,0.0,M,,*62
$GPRMC,001820.00,A,1433.2580,N,12102.0220,E,0,227.0,110926,,,A*4B
$GPGGA,001820.00,1433.2580,N,12102.0220,E,1,09,1.1,22.0,M,0.0,M,,*64
$GPRMC,001830.00,A,1437.8600,N,12104.3500,E,0,125.0,110926,,,A*4E
$GPGGA,001830.00,1437.8600,N,12104.3500,E,1,08,1.2,54.0,M,0.0,M,,*63
$GPRMC,001830.00,A,1433.2580,N,12102.0220,E,0,227.0,110926,,,A*4A
$GPGGA,001830.00,1433.2580,N,12102.0220,E,1,09,1.1,22.0,M,0.0,M,,*65
$GPRMC,001840.00,A,1437.8437,N,12104.3741,E,9.2,125.0,110926,,,A*5D
$GPGGA,001840.00,1437.8437,N,12104.3741,E,1,08,1.2,53.0,M,0.0,M,,*62
$GPRMC,001840.00,A,1433.2488,N,12102.0117,E,9.2,227.0,110926,,,A*56
$GPGGA,001840.00,1433.2488,N,12102.0117,E,1,09,1.1,22.0,M,0.0,M,,*6C
$GPRMC,001850.00,A,1437.7968,N,12104.4434,E,17.3,125.0,110926,,,A*6C
$GPGGA,001850.00,1437.7968,N,12104.4434,E,1,08,1.2,52.0,M,0.0,M,,*6C
$GPRMC,001850.00,A,1433.2222,N,12101.9820,E,17.3,227.0,110926,,,A*68
$GPGGA,001850.00,1433.2222,N,12101.9820,E,1,09,1.1,22.0,M,0.0,M,,*6C
$GPRMC,001900.00,A,1437.7250,N,12104.5495,E,23.2,125.0,110926,,,A*64
$GPGGA,001900.00,1437.7250,N,12104.5495,E,1,08,1.2,49.0,M,0.0,M,,*68
$GPRMC,001900.00,A,1433.1815,N,12101.9365,E,23.2,227.0,110926,,,A*6D
$GPGGA,001900.00,1433.1815,N,12101.9365,E,1,09,1.1,23.0,M,0.0,M,,*6E
$GPRMC,001910.00,A,1437.6369,N,12104.6797,E,26.5,125.0,110926,,,A*6F
$GPGGA,001910.00,1437.6369,N,12104.6797,E,1,08,1.2,46.0,M,0.0,M,,*6E
$GPRMC,001910.00,A,1433.1316,N,12101.8807,E,26.5,227.0,110926,,,A*68
$GPGGA,001910.00,1433.1316,N,12101.8807,E,1,09,1.1,24.0,M,0.0,M,,*6E
$GPRMC,001920.00,A,1437.5431,N,12104.8183,E,26.5,125.0,110926,,,A*68
$GPGGA,001920.00,1437.5431,N,12104.8183,E,1,08,1.2,43.0,M,0.0,M,,*6C
$GPRMC,001920.00,A,1433.0784,N,12101.8213,E,26.5,227.0,110926,,,A*6A
$GPGGA,001920.00,1433.0784,N,12101.8213,E,1,09,1.1,24.0,M,0.0,M,,*6C
$GPRMC,001930.00,A,1437.4550,N,12104.9485,E,23.2,125.0,110926,,,A*6E
$GPGGA,001930.00,1437.4550,N,12104.9485,E,1,08,1.2,40.0,M,0.0,M,,*6B
$GPRMC,001930.00,A,1433.0285,N,12101.7655,E,23.2,227.0,110926,,,A*64
$GPGGA,001930.00,1433.0285,N,12101.7655,E,1,09,1.1,25.0,M,0.0,M,,*61
$GPRMC,001940.00,A,1437.3832,N,12105.0546,E,17.3,125.0,110926,,,A*67
$GPGGA,001940.00,1437.3832,N,12105.0546,E,1,08,1.2,37.0,M,0.0,M,,*64
$GPRMC,001940.00,A,1432.9878,N,12101.7200,E,17.3,227.0,110926,,,A*61
$GPGGA,001940.00,1432.9878,N,12101.7200,E,1,09,1.1,26.0,M,0.0,M,,*61
$GPRMC,001950.00,A,1437.3363,N,12105.1239,E,9.2,125.0,110926,,,A*59
$GPGGA,001950.00,1437.3363,N,12105.1239,E,1,08,1.2,36.0,M,0.0,M,,*65
$GPRMC,001950.00,A,1432.9612,N,12101.6903,E,9.2,227.0,110926,,,A*55
$GPGGA,001950.00,1432.9612,N,12101.6903,E,1,09,1.1,26.0,M,0.0,M,,*6B
$GPRMC,002000.00,A,1437.3200,N,12105.1480,E,0,84.0,110926,,,A*79
$GPGGA,002000.00,1437.3200,N,12105.1480,E,1,08,1.2,35.0,M,0.0,M,,*69
$GPRMC,002000.00,A,1432.9520,N,12101.6800,E,0,228.0,110926,,,A*40
$GPGGA,002000.00,1432.9520,N,12101.6800,E,1,09,1.1,26.0,M,0.0,M,,*64
$GPRMC,002010.00,A,1437.3200,N,12105.1480,E,0,84.0,110926,,,A*78
$GPGGA,002010.00,1437.3200,N,12105.1480,E,1,08,1.2,35.0,M,0.0,M,,*68
$GPRMC,002010.00,A,1432.9520,N,12101.6800,E,0,228.0,110926,,,A*41
$GPGGA,002010.00,1432.9520,N,12101.6800,E,1,09,1.1,26.0,M,0.0,M,,*65
$GPRMC,002020.00,A,1437.3200,N,12105.1480,E,0,84.0,110926,,,A*7B
$GPGGA,002020.00,1437.3200,N,12105.1480,E,1,08,1.2,35.0,M,0.0,M,,*6B
$GPRMC,002020.00,A,1432.9520,N,12101.6800,E,0,228.0,110926,,,A*42
$GPGGA,002020.00,1432.9520,N,12101.6800,E,1,09,1.1,26.0,M,0.0,M,,*66
$GPRMC,002030.00,A,1437.3200,N,12105.1480,E,0,84.0,110926,,,A*7A
$GPGGA,002030.00,1437.3200,N,12105.1480,E,1,08,1.2,35.0,M,0.0,M,,*6A
$GPRMC,002030.00,A,1432.9520,N,12101.6800,E,0,228.0,110926,,,A*43
$GPGGA,002030.00,1432.9520,N,12101.6800,E,1,09,1.1,26.0,M,0.0,M,,*67
$GPRMC,002040.00,A,1437.3227,N,12105.1758,E,9.2,84.0,110926,,,A*6B
$GPGGA,002040.00,1437.3227,N,12105.1758,E,1,08,1.2,35.0,M,0.0,M,,*6E
$GPRMC,002040.00,A,1432.9390,N,12101.6652,E,9.2,228.0,110926,,,A*55
$GPGGA,002040.00,1432.9390,N,12101.6652,E,1,09,1.1,26.0,M,0.0,M,,*64
$GPRMC,002050.00,A,1437.3305,N,12105.2561,E,17.3,84.0,110926,,,A*5E
$GPGGA,002050.00,1437.3305,N,12105.2561,E,1,08,1.2,35.0,M,0.0,M,,*65
$GPRMC,002050.00,A,1432.9015,N,12101.6225,E,17.3,228.0,110926,,,A*60
$GPGGA,002050.00,1432.9015,N,12101.6225,E,1,09,1.1,25.0,M,0.0,M,,*6C
$GPRMC,002100.00,A,1437.3425,N,12105.3790,E,23.2,84.0,110926,,,A*54
$GPGGA,002100.00,1437.3425,N,12105.3790,E,1,08,1.2,34.0,M,0.0,M,,*68
$GPRMC,002100.00,A,1432.8440,N,12101.5570,E,23.2,228.0,110926,,,A*63
$GPGGA,002100.00,1432.8440,N,12101.5570,E,1,09,1.1,24.0,M,0.0,M,,*68
$GPRMC,002110.00,A,1437.3572,N,12105.5298,E,26.5,84.0,110926,,,A*5F
$GPGGA,002110.00,1437.3572,N,12105.5298,E,1,08,1.2,34.0,M,0.0,M,,*61
$GPRMC,002110.00,A,1432.7735,N,12101.4767,E,26.5,228.0,110926,,,A*6B
$GPGGA,002110.00,1432.7735,N,12101.4767,E,1,09,1.1,23.0,M,0.0,M,,*65
$GPRMC,002120.00,A,1437.3728,N,12105.6902,E,26.5,84.0,110926,,,A*5A
$GPGGA,002120.00,1437.3728,N,12105.6902,E,1,08,1.2,33.0,M,0.0,M,,*63
$GPRMC,002120.00,A,1432.6985,N,12101.3913,E,26.5,228.0,110926,,,A*66
$GPGGA,002120.00,1432.6985,N,12101.3913,E,1,09,1.1,21.0,M,0.0,M,,*6A
$GPRMC,002130.00,A,1437.3875,N,12105.8410,E,23.2,84.0,110926,,,A*5E
$GPGGA,002130.00,1437.3875,N,12105.8410,E,1,08,1.2,33.0,M,0.0,M,,*65
$GPRMC,002130.00,A,1432.6280,N,12101.3110,E,23.2,228.0,110926,,,A*60
$GPGGA,002130.00,1432.6280,N,12101.3110,E,1,09,1.1,20.0,M,0.0,M,,*6F
$GPRMC,002140.00,A,1437.3995,N,12105.9639,E,17.3,84.0,110926,,,A*58
$GPGGA,002140.00,1437.3995,N,12105.9639,E,1,08,1.2,32.0,M,0.0,M,,*64
$GPRMC,002140.00,A,1432.5705,N,12101.2455,E,17.3,228.0,110926,,,A*6F
$GPGGA,002140.00,1432.5705,N,12101.2455,E,1,09,1.1,19.0,M,0.0,M,,*6C
$GPRMC,002150.00,A,1437.4073,N,12106.0442,E,9.2,84.0,110926,,,A*65
$GPGGA,002150.00,1437.4073,N,12106.0442,E,1,08,1.2,32.0,M,0.0,M,,*67
$GPRMC,002150.00,A,1432.5330,N,12101.2028,E,9.2,228.0,110926,,,A*5C
$GPGGA,002150.00,1432.5330,N,12101.2028,E,1,09,1.1,18.0,M,0.0,M,,*60
$GPRMC,002200.00,A,1437.4100,N,12106.0720,E,0,86.0,110926,,,A*76
$GPGGA,002200.00,1437.4100,N,12106.0720,E,1,08,1.2,32.0,M,0.0,M,,*63
$GPRMC,002200.00,A,1432.5200,N,12101.1880,E,0,257.0,110926,,,A*4C
$GPGGA,002200.00,1432.5200,N,12101.1880,E,1,09,1.1,18.0,M,0.0,M,,*6D
$GPRMC,002210.00,A,1437.4100,N,12106.0720,E,0,86.0,110926,,,A*77
$GPGGA,002210.00,1437.4100,N,12106.0720,E,1,08,1.2,32.0,M,0.0,M,,*62
$GPRMC,002210.00,A,1432.5200,N,12101.1880,E,0,257.0,110926,,,A*4D
$GPGGA,002210.00,1432.5200,N,12101.1880,E,1,09,1.1,18.0,M,0.0,M,,*6C
$GPRMC,002220.00,A,1437.4100,N,12106.0720,E,0,86.0,110926,,,A*74
$GPGGA,002220.00,1437.4100,N,12106.0720,E,1,08,1.2,32.0,M,0.0,M,,*61
$GPRMC,002220.00,A,1432.5200,N,12101.1880,E,0,257.0,110926,,,A*4E
$GPGGA,002220.00,1432.5200,N,12101.1880,E,1,09,1.1,18.0,M,0.0,M,,*6F
$GPRMC,002230.00,A,1437.4100,N,12106.0720,E,0,86.0,110926,,,A*75
$GPGGA,002230.00,1437.4100,N,12106.0720,E,1,08,1.2,32.0,M,0.0,M,,*60
$GPRMC,002230.00,A,1432.5200,N,12101.1880,E,0,257.0,110926,,,A*4F
$GPGGA,002230.00,1432.5200,N,12101.1880,E,1,09,1.1,18.0,M,0.0,M,,*6E
$GPRMC,002240.00,A,1437.4127,N,12106.1085,E,9.2,86.0,110926,,,A*6B
$GPGGA,002240.00,1437.4127,N,12106.1085,E,1,08,1.2,33.0,M,0.0,M,,*6A
$GPRMC,002240.00,A,1432.5122,N,12101.1533,E,9.2,257.0,110926,,,A*5B
$GPGGA,002240.00,1432.5122,N,12101.1533,E,1,09,1.1,18.0,M,0.0,M,,*6F
$GPRMC,002250.00,A,1437.4205,N,12106.2138,E,17.3,86.0,110926,,,A*53
$GPGGA,002250.00,1437.4205,N,12106.2138,E,1,08,1.2,37.0,M,0.0,M,,*68
$GPRMC,002250.00,A,1432.4898,N,12101.0532,E,17.3,257.0,110926,,,A*6D
$GPGGA,002250.00,1432.4898,N,12101.0532,E,1,09,1.1,17.0,M,0.0,M,,*68
$GPRMC,002300.00,A,1437.4325,N,12106.3750,E,23.2,86.0,110926,,,A*5B
$GPGGA,002300.00,1437.4325,N,12106.3750,E,1,08,1.2,42.0,M,0.0,M,,*64
$GPRMC,002300.00,A,1432.4555,N,12100.9000,E,23.2,257.0,110926,,,A*6F
$GPGGA,002300.00,1432.4555,N,12100.9000,E,1,09,1.1,17.0,M,0.0,M,,*6C
$GPRMC,002310.00,A,1437.4472,N,12106.5728,E,26.5,86.0,110926,,,A*54
$GPGGA,002310.00,1437.4472,N,12106.5728,E,1,08,1.2,49.0,M,0.0,M,,*62
$GPRMC,002310.00,A,1432.4134,N,12100.7120,E,26.5,257.0,110926,,,A*62
$GPGGA,002310.00,1432.4134,N,12100.7120,E,1,09,1.1,16.0,M,0.0,M,,*62
$GPRMC,002320.00,A,1437.4628,N,12106.7832,E,26.5,86.0,110926,,,A*5C
$GPGGA,002320.00,1437.4628,N,12106.7832,E,1,08,1.2,55.0,M,0.0,M,,*67
$GPRMC,002320.00,A,1432.3686,N,12100.5120,E,26.5,257.0,110926,,,A*6A
$GPGGA,002320.00,1432.3686,N,12100.5120,E,1,09,1.1,14.0,M,0.0,M,,*68
$GPRMC,002330.00,A,1437.4775,N,12106.9810,E,23.2,86.0,110926,,,A*58
$GPGGA,002330.00,1437.4775,N,12106.9810,E,1,08,1.2,62.0,M,0.0,M,,*65
$GPRMC,002330.00,A,1432.3265,N,12100.3240,E,23.2,257.0,110926,,,A*63
$GPGGA,002330.00,1432.3265,N,12100.3240,E,1,09,1.1,14.0,M,0.0,M,,*63
$GPRMC,002340.00,A,1437.4895,N,12107.1422,E,17.3,86.0,110926,,,A*5C
$GPGGA,002340.00,1437.4895,N,12107.1422,E,1,08,1.2,67.0,M,0.0,M,,*62
$GPRMC,002340.00,A,1432.2922,N,12100.1708,E,17.3,257.0,110926,,,A*60
$GPGGA,002340.00,1432.2922,N,12100.1708,E,1,09,1.1,13.0,M,0.0,M,,*61
$GPRMC,002350.00,A,1437.4973,N,12107.2475,E,9.2,86.0,110926,,,A*6B
$GPGGA,002350.00,1437.4973,N,12107.2475,E,1,08,1.2,71.0,M,0.0,M,,*6C
$GPRMC,002350.00,A,1432.2698,N,12100.0707,E,9.2,257.0,110926,,,A*5F
$GPGGA,002350.00,1432.2698,N,12100.0707,E,1,09,1.1,12.0,M,0.0,M,,*61
$GPRMC,002400.00,A,1437.5000,N,12107.2840,E,0,86.0,110926,,,A*7A
$GPGGA,002400.00,1437.5000,N,12107.2840,E,1,08,1.2,72.0,M,0.0,M,,*6B
$GPRMC,002400.00,A,1432.2620,N,12100.0360,E,0,257.0,110926,,,A*4E
$GPGGA,002400.00,1432.2620,N,12100.0360,E,1,09,1.1,12.0,M,0.0,M,,*65
$GPRMC,002410.00,A,1437.5000,N,12107.2840,E,0,86.0,110926,,,A*7B
$GPGGA,002410.00,1437.5000,N,12107.2840,E,1,08,1.2,72.0,M,0.0,M,,*6A
$GPRMC,002410.00,A,1432.2620,N,12100.0360,E,0,257.0,110926,,,A*4F
$GPGGA,002410.00,1432.2620,N,12100.0360,E,1,09,1.1,12.0,M,0.0,M,,*64
$GPRMC,002420.00,A,1437.5000,N,12107.2840,E,0,86.0,110926,,,A*78
$GPGGA,002420.00,1437.5000,N,12107.2840,E,1,08,1.2,72.0,M,0.0,M,,*69
$GPRMC,002420.00,A,1432.2620,N,12100.0360,E,0,257.0,110926,,,A*4C
$GPGGA,002420.00,1432.2620,N,12100.0360,E,1,09,1.1,12.0,M,0.0,M,,*67
$GPRMC,002430.00,A,1437.5000,N,12107.2840,E,0,86.0,110926,,,A*79
$GPGGA,002430.00,1437.5000,N,12107.2840,E,1,08,1.2,72.0,M,0.0,M,,*68
$GPRMC,002430.00,A,1432.2620,N,12100.0360,E,0,257.0,110926,,,A*4D
$GPGGA,002430.00,1432.2620,N,12100.0360,E,1,09,1.1,12.0,M,0.0,M,,*66